PANDORA
1 67395U 80229J   26084.70914352  .00000000  00000-0  37770-3 0    02
2 67395  97.8060  84.6734 0006425  53.5390 257.7056 14.87898147    05
